{
    "links": {
        "self": "http://www.neowsapp.com/rest/v1/neo/3989233?api_key=iIulBulltgU6a56xZRHN4H3l9WmuAYTsLGpBGhQ2"
    },
    "id": "3989233",
    "neo_reference_id": "3989233",
    "name": "(2020 BA10)",
    "designation": "2020 BA10",
    "nasa_jpl_url": "http://ssd.jpl.nasa.gov/sbdb.cgi?sstr=3989233",
    "absolute_magnitude_h": 25.448,
    "estimated_diameter": {
        "kilometers": {
            "estimated_diameter_min": 0.0216249433,
            "estimated_diameter_max": 0.0483548431
        },
        "meters": {
            "estimated_diameter_min": 21.624943259,
            "estimated_diameter_max": 48.3548431367
        },
        "miles": {
            "estimated_diameter_min": 0.0134371126,
            "estimated_diameter_max": 0.0300462972
        },
        "feet": {
            "estimated_diameter_min": 70.9479788418,
            "estimated_diameter_max": 158.6445035565
        }
    },
    "is_potentially_hazardous_asteroid": false,
    "close_approach_data": [
        {
            "close_approach_date": "2020-02-18",
            "close_approach_date_full": "2020-Feb-18 14:06",
            "epoch_date_close_approach": 1582034760000,
            "relative_velocity": {
                "kilometers_per_second": "9.0128125587",
                "kilometers_per_hour": "32446.1252114031",
                "miles_per_hour": "20160.7604126077"
            },
            "miss_distance": {
                "astronomical": "0.0314035169",
                "lunar": "12.2159680741",
                "kilometers": "4697899.238749003",
                "miles": "2919139.2246741214"
            },
            "orbiting_body": "Earth"
        },
        {
            "close_approach_date": "2125-06-12",
            "close_approach_date_full": "2125-Jun-12 01:25",
            "epoch_date_close_approach": 4905365100000,
            "relative_velocity": {
                "kilometers_per_second": "22.2571660259",
                "kilometers_per_hour": "80125.797693078",
                "miles_per_hour": "49787.054683235"
            },
            "miss_distance": {
                "astronomical": "0.4695614893",
                "lunar": "182.6594193377",
                "kilometers": "70245398.633307791",
                "miles": "43648466.7044418758"
            },
            "orbiting_body": "Earth"
        }
    ],
    "orbital_data": {
        "orbit_id": "6",
        "orbit_determination_date": "2020-02-19 09:40:22",
        "first_observation_date": "2020-01-25",
        "last_observation_date": "2020-02-18",
        "data_arc_in_days": 24,
        "observations_used": 47,
        "orbit_uncertainty": "8",
        "minimum_orbit_intersection": ".0160541",
        "jupiter_tisserand_invariant": "4.024",
        "epoch_osculation": "2458879.5",
        "eccentricity": ".4543942082772258",
        "semi_major_axis": "1.737550850342321",
        "inclination": "1.584027221117857",
        "ascending_node_longitude": "118.9297695830208",
        "orbital_period": "836.5746720268287",
        "perihelion_distance": ".9480178073596016",
        "perihelion_argument": "66.19429791927962",
        "aphelion_distance": "2.527083893325041",
        "perihelion_time": "2458926.074290171244",
        "mean_anomaly": "339.9578626722874",
        "mean_motion": ".4303262004428158",
        "equinox": "J2000",
        "orbit_class": {
            "orbit_class_type": "APO",
            "orbit_class_description": "Near-Earth asteroid orbits which cross the Earth’s orbit similar to that of 1862 Apollo",
            "orbit_class_range": "a (semi-major axis) > 1.0 AU; q (perihelion) < 1.017 AU"
        }
    },
    "is_sentry_object": false
}